[{"OBJECT_NAME":"STARLINK-35967","OBJECT_ID":"2025-271T","EPOCH":"2026-03-09T11:04:56.126208","MEAN_MOTION":15.30208137,"ECCENTRICITY":0.00017515,"INCLINATION":53.1603,"RA_OF_ASC_NODE":140.8628,"ARG_OF_PERICENTER":88.7111,"MEAN_ANOMALY":271.4091,"EPHEMERIS_TYPE":0,"CLASSIFICATION_TYPE":"U","NORAD_CAT_ID":66634,"ELEMENT_SET_NO":999,"REV_AT_EPOCH":1749,"BSTAR":0.00091301825,"MEAN_MOTION_DOT":0.00026786,"MEAN_MOTION_DDOT":0},{"OBJECT_NAME":"NOAA 16 DEB","OBJECT_ID":"2000-055BK","EPOCH":"2026-03-09T02:17:10.174560","MEAN_MOTION":15.30191008,"ECCENTRICITY":0.00052528,"INCLINATION":98.9831,"RA_OF_ASC_NODE":305.6383,"ARG_OF_PERICENTER":26.64,"MEAN_ANOMALY":333.5104,"EPHEMERIS_TYPE":0,"CLASSIFICATION_TYPE":"U","NORAD_CAT_ID":41128,"ELEMENT_SET_NO":999,"REV_AT_EPOCH":53406,"BSTAR":0.017668961,"MEAN_MOTION_DOT":0.00549039,"MEAN_MOTION_DDOT":0}]
